OBJECT_NAME,OBJECT_ID,EPOCH,MEAN_MOTION,ECCENTRICITY,INCLINATION,RA_OF_ASC_NODE,ARG_OF_PERICENTER,MEAN_ANOMALY,EPHEMERIS_TYPE,CLASSIFICATION_TYPE,NORAD_CAT_ID,ELEMENT_SET_NO,REV_AT_EPOCH,BSTAR,MEAN_MOTION_DOT,MEAN_MOTION_DDOT
TIANZHOU-10,2026-102A,2026-06-08T01:57:54.676512,15.60427341,.00087027,41.4696,17.3987,5.5904,354.5031,0,U,69049,999,453,.30374166E-3,.25465E-3,0
QIANFAN-127,2026-104A,2026-06-08T11:19:24.316608,14.14823234,.0006913,88.9855,342.5968,171.0577,189.0735,0,U,69073,999,385,-.11793E+1,-.2099844E-1,0
QIANFAN-128,2026-104B,2026-06-08T11:07:16.813056,14.11627456,.0006074,88.9851,342.6147,85.7825,274.4054,0,U,69074,999,384,-.12042E+1,-.202734E-1,0
QIANFAN-129,2026-104C,2026-06-08T11:51:33.980256,14.18103495,.0010236,88.9857,342.5815,148.8000,211.3798,0,U,69075,999,386,-.10966E+1,-.2077362E-1,0
QIANFAN-130,2026-104D,2026-06-08T12:29:15.586656,14.15164458,.0004939,88.9862,342.6040,112.6017,247.5693,0,U,69076,999,385,.4573E-4,.103E-5,0
QIANFAN-131,2026-104E,2026-06-08T11:45:03.211200,14.17061645,.0004124,88.9859,342.5993,126.7503,233.4065,0,U,69077,999,385,.40152E-4,.95E-6,0
QIANFAN-132,2026-104F,2026-06-08T12:45:27.896832,14.11405357,.0003287,88.9852,342.6063,9.1341,350.9903,0,U,69078,999,385,-.12416E+1,-.2077648E-1,0
QIANFAN-133,2026-104G,2026-06-08T12:20:12.522048,14.12458813,.0003552,88.9856,342.6035,117.1095,243.0453,0,U,69079,999,385,-.11877E+1,-.2029881E-1,0
QIANFAN-134,2026-104H,2026-06-08T12:11:57.532992,14.11753426,.0006617,88.9859,342.6029,82.4244,277.7693,0,U,69080,999,385,-.11863E+1,-.2003765E-1,0
QIANFAN-135,2026-104J,2026-06-08T12:03:49.902624,14.12808391,.0004883,88.9857,342.6020,127.5038,232.6593,0,U,69081,999,385,-.1184E+1,-.2036209E-1,0
QIANFAN-136,2026-104K,2026-06-08T11:56:48.856416,14.12832297,.0005257,88.9855,342.6010,126.7279,233.4390,0,U,69082,999,385,-.11391E+1,-.1965114E-1,0
QIANFAN-137,2026-104L,2026-06-08T11:58:34.883904,14.24907944,.000561,88.9862,342.5820,129.8514,230.3173,0,U,69083,999,386,.44672E-4,.119E-5,0
QIANFAN-138,2026-104M,2026-06-08T11:38:06.705312,14.14005343,.0005194,88.9855,342.5991,151.0286,209.1190,0,U,69084,999,385,-.11667E+1,-.2049998E-1,0
QIANFAN-139,2026-104N,2026-06-08T11:30:43.880256,14.14193791,.0005758,88.9852,342.5983,167.3317,192.8015,0,U,69085,999,385,-.11654E+1,-.2054496E-1,0
QIANFAN-140,2026-104P,2026-06-08T11:22:49.685952,14.14094745,.0004682,88.9856,342.5984,165.3010,194.8314,0,U,69086,999,385,-.11168E+1,-.1971426E-1,0
QIANFAN-141,2026-104Q,2026-06-08T11:16:33.426048,14.15077111,.0005968,88.9856,342.5966,178.0247,182.0965,0,U,69087,999,385,-.11494E+1,-.2059343E-1,0
QIANFAN-142,2026-104R,2026-06-08T11:07:57.474624,14.15704363,.0006908,88.9849,342.5951,170.3716,189.7605,0,U,69088,999,385,-.11217E+1,-.203517E-1,0
QIANFAN-143,2026-104S,2026-06-08T10:48:11.943072,14.14972156,.0007754,88.9856,342.5924,156.7354,203.4185,0,U,69089,999,385,-.1156E+1,-.2066733E-1,0
QIANFAN-144,2026-104T,2026-06-08T10:56:20.287104,14.14749478,.0004111,88.9855,342.5953,165.8530,194.2773,0,U,69090,999,385,-.10369E+1,-.1860366E-1,0
ZHUQUE-2E R/B,2026-105A,2026-06-08T03:47:01.435200,15.14860398,.0457456,88.9717,195.4983,332.9490,24.8551,0,U,69095,999,378,.40845112E-3,.166352E-2,-.70526E-6
2026-106A,2026-106A,2026-06-04T15:09:10.862208,15.11037132,.0013466,97.5095,237.9435,203.5034,156.5582,0,U,69097,999,308,.543886E-3,.9052E-4,0
2026-106B,2026-106B,2026-06-04T15:16:55.543008,15.09575067,.00142668,97.5082,237.9319,199.5733,160.4950,0,U,69098,999,308,.42602016E-3,.6796E-4,0
2026-106C,2026-106C,2026-06-04T15:08:24.576864,15.11076088,.00135546,97.5097,237.9445,204.3760,155.6830,0,U,69099,999,308,.53277866E-3,.8876E-4,0
2026-106D,2026-106D,2026-06-04T15:05:56.171040,15.11202473,.00131226,97.5062,237.9411,207.0214,153.0334,0,U,69100,999,308,.49447297E-3,.826E-4,0
2026-106E,2026-106E,2026-06-04T15:00:25.283232,15.11460406,.0015124,97.5073,237.9468,208.9127,151.1267,0,U,69101,999,308,.54174936E-3,.9128E-4,0
DRAGON CRS-34,2026-107A,2026-06-08T06:55:01.494336,15.49664883,.0006937,51.6333,344.1431,146.3340,213.8090,0,U,69103,999,57041,.12624E-3,.6674E-4,0
QIANFAN-145,2026-108A,2026-06-08T12:12:42.443712,14.16077456,.0015818,89.0118,23.1868,141.5413,218.6906,0,U,69104,999,311,.12634E-3,.264E-5,0
QIANFAN-146,2026-108B,2026-06-08T12:05:41.907264,14.16802643,.00139,89.0115,23.1686,156.2007,203.9827,0,U,69105,999,312,-.93767E+0,-.1736877E-1,0
