TIANZHOU-10             
1 69049U 26102A   26159.08188283  .00025465  00000+0  30374-3 0  9991
2 69049  41.4696  17.3987 0008702   5.5904 354.5031 15.60427341  4531
QIANFAN-127             
1 69073U 26104A   26159.47180922 -.02099844  00000+0 -11793+1 0  9992
2 69073  88.9855 342.5968 0006913 171.0577 189.0735 14.14823234  3855
QIANFAN-128             
1 69074U 26104B   26159.46338904 -.02027340  00000+0 -12042+1 0  9997
2 69074  88.9851 342.6147 0006074  85.7825 274.4054 14.11627456  3844
QIANFAN-129             
1 69075U 26104C   26159.49414329 -.02077362  00000+0 -10966+1 0  9999
2 69075  88.9857 342.5815 0010236 148.8000 211.3798 14.18103495  3869
QIANFAN-130             
1 69076U 26104D   26159.52031929  .00000103  00000+0  45730-4 0  9991
2 69076  88.9862 342.6040 0004939 112.6017 247.5693 14.15164458  3854
QIANFAN-131             
1 69077U 26104E   26159.48962050  .00000095  00000+0  40152-4 0  9998
2 69077  88.9859 342.5993 0004124 126.7503 233.4065 14.17061645  3852
QIANFAN-132             
1 69078U 26104F   26159.53157288 -.02077648  00000+0 -12416+1 0  9994
2 69078  88.9852 342.6063 0003287   9.1341 350.9903 14.11405357  3850
QIANFAN-133             
1 69079U 26104G   26159.51403382 -.02029881  00000+0 -11877+1 0  9998
2 69079  88.9856 342.6035 0003552 117.1095 243.0453 14.12458813  3853
QIANFAN-134             
1 69080U 26104H   26159.50830478 -.02003765  00000+0 -11863+1 0  9997
2 69080  88.9859 342.6029 0006617  82.4244 277.7693 14.11753426  3853
QIANFAN-135             
1 69081U 26104J   26159.50266091 -.02036209  00000+0 -11840+1 0  9996
2 69081  88.9857 342.6020 0004883 127.5038 232.6593 14.12808391  3850
QIANFAN-136             
1 69082U 26104K   26159.49778769 -.01965114  00000+0 -11391+1 0  9991
2 69082  88.9855 342.6010 0005257 126.7279 233.4390 14.12832297  3858
QIANFAN-137             
1 69083U 26104L   26159.49901486  .00000119  00000+0  44672-4 0  9990
2 69083  88.9862 342.5820 0005610 129.8514 230.3173 14.24907944  3865
QIANFAN-138             
1 69084U 26104M   26159.48479983 -.02049998  00000+0 -11667+1 0  9998
2 69084  88.9855 342.5991 0005194 151.0286 209.1190 14.14005343  3850
QIANFAN-139             
1 69085U 26104N   26159.47967454 -.02054496  00000+0 -11654+1 0  9998
2 69085  88.9852 342.5983 0005758 167.3317 192.8015 14.14193791  3859
QIANFAN-140             
1 69086U 26104P   26159.47418618 -.01971426  00000+0 -11168+1 0  9992
2 69086  88.9856 342.5984 0004682 165.3010 194.8314 14.14094745  3851
QIANFAN-141             
1 69087U 26104Q   26159.46983132 -.02059343  00000+0 -11494+1 0  9998
2 69087  88.9856 342.5966 0005968 178.0247 182.0965 14.15077111  3853
QIANFAN-142             
1 69088U 26104R   26159.46385966 -.02035170  00000+0 -11217+1 0  9995
2 69088  88.9849 342.5951 0006908 170.3716 189.7605 14.15704363  3852
QIANFAN-143             
1 69089U 26104S   26159.45013823 -.02066733  00000+0 -11560+1 0  9995
2 69089  88.9856 342.5924 0007754 156.7354 203.4185 14.14972156  3850
QIANFAN-144             
1 69090U 26104T   26159.45579036 -.01860366  00000+0 -10369+1 0  9999
2 69090  88.9855 342.5953 0004111 165.8530 194.2773 14.14749478  3853
ZHUQUE-2E R/B           
1 69095U 26105A   26159.15765550  .00166352 -70526-6  40845-3 0  9994
2 69095  88.9717 195.4983 0457456 332.9490  24.8551 15.14860398  3789
2026-106A               
1 69097U 26106A   26155.63137572  .00009052  00000+0  54389-3 0  9996
2 69097  97.5095 237.9435 0013466 203.5034 156.5582 15.11037132  3085
2026-106B               
1 69098U 26106B   26155.63675397  .00006796  00000+0  42602-3 0  9996
2 69098  97.5082 237.9319 0014266 199.5733 160.4950 15.09575067  3086
2026-106C               
1 69099U 26106C   26155.63084001  .00008876  00000+0  53278-3 0  9995
2 69099  97.5097 237.9445 0013554 204.3760 155.6830 15.11076088  3082
2026-106D               
1 69100U 26106D   26155.62912235  .00008260  00000+0  49447-3 0  9996
2 69100  97.5062 237.9411 0013122 207.0214 153.0334 15.11202473  3085
2026-106E               
1 69101U 26106E   26155.62529263  .00009128  00000+0  54175-3 0  9990
2 69101  97.5073 237.9468 0015124 208.9127 151.1267 15.11460406  3083
DRAGON CRS-34           
1 69103U 26107A   26159.28821174  .00006674  00000+0  12624-3 0  9991
2 69103  51.6333 344.1431 0006937 146.3340 213.8090 15.49664883570412
QIANFAN-145             
1 69104U 26108A   26159.50882458  .00000264  00000+0  12634-3 0  9990
2 69104  89.0118  23.1868 0015818 141.5413 218.6906 14.16077456  3117
QIANFAN-146             
1 69105U 26108B   26159.50395726 -.01736877  00000+0 -93767+0 0  9999
2 69105  89.0115  23.1686 0013900 156.2007 203.9827 14.16802643  3129
